[
    {
        "Altitude(m)": 710865.7034396554,
        "Argument of Periapsis(deg)": 0.007973084830638947,
        "Eccentricity": 0.0,
        "Inclination(deg)": 45.0,
        "Latitude(deg)": -27.81861688542918,
        "Longitude(deg)": 177.81112879262457,
        "Mean Anomaly(deg)": -41.01764834676331,
        "RAAN(deg)": 309.99247364097926,
        "Satellite Name": "Constellation 1 1383",
        "Satellite Number": 1383,
        "Semi-Major Axis(m)": 7083131.272910544,
        "Time(s)": 133
    },
    {
        "Altitude(m)": 710851.8607889996,
        "Argument of Periapsis(deg)": 0.008033032836884352,
        "Eccentricity": 0.0,
        "Inclination(deg)": 45.0,
        "Latitude(deg)": -27.781956400847257,
        "Longitude(deg)": 177.86162433780208,
        "Mean Anomaly(deg)": -40.95694720651348,
        "RAAN(deg)": 309.9924170518137,
        "Satellite Name": "Constellation 1 1383",
        "Satellite Number": 1383,
        "Semi-Major Axis(m)": 7083131.272910544,
        "Time(s)": 134
    },
    {
        "Altitude(m)": 710838.0170297255,
        "Argument of Periapsis(deg)": 0.008092980843129758,
        "Eccentricity": 0.0,
        "Inclination(deg)": 45.0,
        "Latitude(deg)": -27.745274085865404,
        "Longitude(deg)": 177.91208341128592,
        "Mean Anomaly(deg)": -40.89624606626364,
        "RAAN(deg)": 309.99236046264815,
        "Satellite Name": "Constellation 1 1383",
        "Satellite Number": 1383,
        "Semi-Major Axis(m)": 7083131.272910544,
        "Time(s)": 135
    },
    {
        "Altitude(m)": 710824.172209765,
        "Argument of Periapsis(deg)": 0.008152928849375162,
        "Eccentricity": 0.0,
        "Inclination(deg)": 45.0,
        "Latitude(deg)": -27.708569987939494,
        "Longitude(deg)": 177.96250607265912,
        "Mean Anomaly(deg)": -40.835544926013604,
        "RAAN(deg)": 309.99230387348257,
        "Satellite Name": "Constellation 1 1383",
        "Satellite Number": 1383,
        "Semi-Major Axis(m)": 7083131.272910544,
        "Time(s)": 136
    },
    {
        "Altitude(m)": 710810.3263770402,
        "Argument of Periapsis(deg)": 0.008212876855620568,
        "Eccentricity": 0.0,
        "Inclination(deg)": 45.0,
        "Latitude(deg)": -27.67184415445732,
        "Longitude(deg)": 178.0128923815271,
        "Mean Anomaly(deg)": -40.774843785763764,
        "RAAN(deg)": 309.992247284317,
        "Satellite Name": "Constellation 1 1383",
        "Satellite Number": 1383,
        "Semi-Major Axis(m)": 7083131.272910544,
        "Time(s)": 137
    },
    {
        "Altitude(m)": 710796.4795794683,
        "Argument of Periapsis(deg)": 0.008272824861865974,
        "Eccentricity": 0.0,
        "Inclination(deg)": 45.0,
        "Latitude(deg)": -27.635096632738236,
        "Longitude(deg)": 178.0632423975176,
        "Mean Anomaly(deg)": -40.71414264551393,
        "RAAN(deg)": 309.9921906951514,
        "Satellite Name": "Constellation 1 1383",
        "Satellite Number": 1383,
        "Semi-Major Axis(m)": 7083131.272910544,
        "Time(s)": 138
    },
    {
        "Altitude(m)": 710782.6318649624,
        "Argument of Periapsis(deg)": 0.00833277286811138,
        "Eccentricity": 0.0,
        "Inclination(deg)": 45.0,
        "Latitude(deg)": -27.59832747003336,
        "Longitude(deg)": 178.11355618027991,
        "Mean Anomaly(deg)": -40.65344150526394,
        "RAAN(deg)": 309.9921341059858,
        "Satellite Name": "Constellation 1 1383",
        "Satellite Number": 1383,
        "Semi-Major Axis(m)": 7083131.272910544,
        "Time(s)": 139
    },
    {
        "Altitude(m)": 710768.7832814216,
        "Argument of Periapsis(deg)": 0.008392720874356788,
        "Eccentricity": 0.0,
        "Inclination(deg)": 45.0,
        "Latitude(deg)": -27.561536713525953,
        "Longitude(deg)": 178.16383378948436,
        "Mean Anomaly(deg)": -40.592740365014,
        "RAAN(deg)": 309.9920775168203,
        "Satellite Name": "Constellation 1 1383",
        "Satellite Number": 1383,
        "Semi-Major Axis(m)": 7083131.272910544,
        "Time(s)": 140
    },
    {
        "Altitude(m)": 710754.9338767387,
        "Argument of Periapsis(deg)": 0.008452668880602192,
        "Eccentricity": 0.0,
        "Inclination(deg)": 45.0,
        "Latitude(deg)": -27.52472441033087,
        "Longitude(deg)": 178.214075116725,
        "Mean Anomaly(deg)": -40.53203922476417,
        "RAAN(deg)": 309.9920209276547,
        "Satellite Name": "Constellation 1 1383",
        "Satellite Number": 1383,
        "Semi-Major Axis(m)": 7083131.272910544,
        "Time(s)": 141
    },
    {
        "Altitude(m)": 710741.0836988017,
        "Argument of Periapsis(deg)": 0.008512616886847598,
        "Eccentricity": 0.0,
        "Inclination(deg)": 45.0,
        "Latitude(deg)": -27.48789060749582,
        "Longitude(deg)": 178.26428055790726,
        "Mean Anomaly(deg)": -40.47133808451429,
        "RAAN(deg)": 309.9919643384891,
        "Satellite Name": "Constellation 1 1383",
        "Satellite Number": 1383,
        "Semi-Major Axis(m)": 7083131.272910544,
        "Time(s)": 142
    },
    {
        "Altitude(m)": 710727.2327954877,
        "Argument of Periapsis(deg)": 0.008572564893093004,
        "Eccentricity": 0.0,
        "Inclination(deg)": 45.0,
        "Latitude(deg)": -27.451035351999888,
        "Longitude(deg)": 178.31445000466496,
        "Mean Anomaly(deg)": -40.4106369442644,
        "RAAN(deg)": 309.99190774932356,
        "Satellite Name": "Constellation 1 1383",
        "Satellite Number": 1383,
        "Semi-Major Axis(m)": 7083131.272910544,
        "Time(s)": 143
    },
    {
        "Altitude(m)": 710713.3812146657,
        "Argument of Periapsis(deg)": 0.008632512899338408,
        "Eccentricity": 0.0,
        "Inclination(deg)": 45.0,
        "Latitude(deg)": -27.414158690754533,
        "Longitude(deg)": 178.36458351674878,
        "Mean Anomaly(deg)": -40.34993580401446,
        "RAAN(deg)": 309.991851160158,
        "Satellite Name": "Constellation 1 1383",
        "Satellite Number": 1383,
        "Semi-Major Axis(m)": 7083131.272910544,
        "Time(s)": 144
    },
    {
        "Altitude(m)": 710699.5290041906,
        "Argument of Periapsis(deg)": 0.008692460905583814,
        "Eccentricity": 0.0,
        "Inclination(deg)": 45.0,
        "Latitude(deg)": -27.377260670603672,
        "Longitude(deg)": 178.41468115392775,
        "Mean Anomaly(deg)": -40.289234663764624,
        "RAAN(deg)": 309.99179457099245,
        "Satellite Name": "Constellation 1 1383",
        "Satellite Number": 1383,
        "Semi-Major Axis(m)": 7083131.272910544,
        "Time(s)": 145
    },
    {
        "Altitude(m)": 710685.6762119127,
        "Argument of Periapsis(deg)": 0.00875240891182922,
        "Eccentricity": 0.0,
        "Inclination(deg)": 45.0,
        "Latitude(deg)": -27.340341338323405,
        "Longitude(deg)": 178.46474297598965,
        "Mean Anomaly(deg)": -40.228533523514635,
        "RAAN(deg)": 309.9917379818269,
        "Satellite Name": "Constellation 1 1383",
        "Satellite Number": 1383,
        "Semi-Major Axis(m)": 7083131.272910544,
        "Time(s)": 146
    },
    {
        "Altitude(m)": 710671.8228856799,
        "Argument of Periapsis(deg)": 0.008812356918074627,
        "Eccentricity": 0.0,
        "Inclination(deg)": 45.0,
        "Latitude(deg)": -27.303400740622504,
        "Longitude(deg)": 178.5147690427397,
        "Mean Anomaly(deg)": -40.16783238326485,
        "RAAN(deg)": 309.99168139266123,
        "Satellite Name": "Constellation 1 1383",
        "Satellite Number": 1383,
        "Semi-Major Axis(m)": 7083131.272910544,
        "Time(s)": 147
    },
    {
        "Altitude(m)": 710657.9690733186,
        "Argument of Periapsis(deg)": 0.008872304924320031,
        "Eccentricity": 0.0,
        "Inclination(deg)": 45.0,
        "Latitude(deg)": -27.26643892414162,
        "Longitude(deg)": 178.5647592459044,
        "Mean Anomaly(deg)": -40.10713124301491,
        "RAAN(deg)": 309.9916248034957,
        "Satellite Name": "Constellation 1 1383",
        "Satellite Number": 1383,
        "Semi-Major Axis(m)": 7083131.272910544,
        "Time(s)": 148
    },
    {
        "Altitude(m)": 710644.114822653,
        "Argument of Periapsis(deg)": 0.008932252930565437,
        "Eccentricity": 0.0,
        "Inclination(deg)": 45.0,
        "Latitude(deg)": -27.2294559354552,
        "Longitude(deg)": 178.61471398151787,
        "Mean Anomaly(deg)": -40.04643010276498,
        "RAAN(deg)": 309.99156821433013,
        "Satellite Name": "Constellation 1 1383",
        "Satellite Number": 1383,
        "Semi-Major Axis(m)": 7083131.272910544,
        "Time(s)": 149
    },
    {
        "Altitude(m)": 710630.2601814932,
        "Argument of Periapsis(deg)": 0.008992200936810843,
        "Eccentricity": 0.0,
        "Inclination(deg)": 45.0,
        "Latitude(deg)": -27.192451821069458,
        "Longitude(deg)": 178.66463314133966,
        "Mean Anomaly(deg)": -39.98572896251509,
        "RAAN(deg)": 309.9915116251646,
        "Satellite Name": "Constellation 1 1383",
        "Satellite Number": 1383,
        "Semi-Major Axis(m)": 7083131.272910544,
        "Time(s)": 150
    },
    {
        "Altitude(m)": 710616.4051976384,
        "Argument of Periapsis(deg)": 0.009052148943056249,
        "Eccentricity": 0.0,
        "Inclination(deg)": 45.0,
        "Latitude(deg)": -27.15542662742348,
        "Longitude(deg)": 178.71451678524303,
        "Mean Anomaly(deg)": -39.92502782226525,
        "RAAN(deg)": 309.991455035999,
        "Satellite Name": "Constellation 1 1383",
        "Satellite Number": 1383,
        "Semi-Major Axis(m)": 7083131.272910544,
        "Time(s)": 151
    }
]